[{"OBJECT_NAME":"STARLINK-6098","OBJECT_ID":"2023-083AG","EPOCH":"2026-03-09T22:00:01.999584","MEAN_MOTION":15.09631398,"ECCENTRICITY":0.00020082,"INCLINATION":43.0008,"RA_OF_ASC_NODE":67.7459,"ARG_OF_PERICENTER":259.638,"MEAN_ANOMALY":48.5969,"EPHEMERIS_TYPE":0,"CLASSIFICATION_TYPE":"U","NORAD_CAT_ID":56906,"ELEMENT_SET_NO":999,"REV_AT_EPOCH":572,"BSTAR":0.004417048,"MEAN_MOTION_DOT":0.00072804,"MEAN_MOTION_DDOT":0},{"OBJECT_NAME":"CZ-4 DEB","OBJECT_ID":"1990-081BD","EPOCH":"2026-03-09T22:42:42.703776","MEAN_MOTION":15.11873294,"ECCENTRICITY":0.00034139,"INCLINATION":98.0936,"RA_OF_ASC_NODE":110.4779,"ARG_OF_PERICENTER":147.9161,"MEAN_ANOMALY":298.2423,"EPHEMERIS_TYPE":0,"CLASSIFICATION_TYPE":"U","NORAD_CAT_ID":20893,"ELEMENT_SET_NO":999,"REV_AT_EPOCH":85212,"BSTAR":0.0037838154,"MEAN_MOTION_DOT":0.00065217,"MEAN_MOTION_DDOT":0}]
